{"type": "FeatureCollection", "features": [ {"type": "Feature", "properties": {"norad_id": 34750, "name": "COSMOS 2251 DEB", "group": "cosmos-2251-debris", "lat": -23.32659994299232, "lon": 0.974265723432302, "alt_km": 689.8023474261217, "timestamp": "2025-12-27T08:36:18.779721+00:00", "meta": {"OBJECT_NAME": "COSMOS 2251 DEB", "OBJECT_ID": "1993-036ZU", "EPOCH": "2025-12-26T22:22:40.831392", "MEAN_MOTION": 14.61470505, "ECCENTRICITY": 0.0038217, "INCLINATION": 74.1071, "RA_OF_ASC_NODE": 174.7283, "ARG_OF_PERICENTER": 122.8481, "MEAN_ANOMALY": 359.8296, "EPHEMERIS_TYPE": 0, "CLASSIFICATION_TYPE": "U", "NORAD_CAT_ID": 34750, "ELEMENT_SET_NO": 999, "REV_AT_EPOCH": 88438, "BSTAR": 0.0014743, "MEAN_MOTION_DOT": 7.361e-05, "MEAN_MOTION_DDOT": 0}, "tle": {"line1": "1 34750U 93036ZU  25360.93241703  .00007361  00000+0  14743-2 0  9992", "line2": "2 34750  74.1071 174.7283 0038217 122.8481 359.8296 14.61470505884386"}}, "geometry": {"type": "Point", "coordinates": [0.974265723432302, -23.32659994299232]}}, {"type": "Feature", "properties": {"norad_id": 34752, "name": "COSMOS 2251 DEB", "group": "cosmos-2251-debris", "lat": -38.32323546766478, "lon": 163.94229614821577, "alt_km": 591.2123567282852, "timestamp": "2025-12-27T08:36:18.779731+00:00", "meta": {"OBJECT_NAME": "COSMOS 2251 DEB", "OBJECT_ID": "1993-036ZW", "EPOCH": "2025-12-27T04:25:51.654432", "MEAN_MOTION": 15.00272869, "ECCENTRICITY": 0.0047574, "INCLINATION": 74.0132, "RA_OF_ASC_NODE": 331.199, "ARG_OF_PERICENTER": 95.0099, "MEAN_ANOMALY": 265.6521, "EPHEMERIS_TYPE": 0, "CLASSIFICATION_TYPE": "U", "NORAD_CAT_ID": 34752, "ELEMENT_SET_NO": 999, "REV_AT_EPOCH": 90066, "BSTAR": 0.0012231, "MEAN_MOTION_DOT": 0.00015687, "MEAN_MOTION_DDOT": 0}, "tle": {"line1": "1 34752U 93036ZW  25361.18462563  .00015687  00000+0  12231-2 0  9991", "line2": "2 34752  74.0132 331.1990 0047574  95.0099 265.6521 15.00272869900663"}}, "geometry": {"type": "Point", "coordinates": [163.94229614821577, -38.32323546766478]}}, {"type": "Feature", "properties": {"norad_id": 34754, "name": "COSMOS 2251 DEB", "group": "cosmos-2251-debris", "lat": -56.689169567274405, "lon": 174.72460316149844, "alt_km": 742.7622492792225, "timestamp": "2025-12-27T08:36:18.779741+00:00", "meta": {"OBJECT_NAME": "COSMOS 2251 DEB", "OBJECT_ID": "1993-036ZY", "EPOCH": "2025-12-27T01:17:47.767776", "MEAN_MOTION": 14.40501324, "ECCENTRICITY": 0.0030062, "INCLINATION": 74.0288, "RA_OF_ASC_NODE": 201.1242, "ARG_OF_PERICENTER": 314.5632, "MEAN_ANOMALY": 206.633, "EPHEMERIS_TYPE": 0, "CLASSIFICATION_TYPE": "U", "NORAD_CAT_ID": 34754, "ELEMENT_SET_NO": 999, "REV_AT_EPOCH": 88339, "BSTAR": 0.00023241, "MEAN_MOTION_DOT": 7.17e-06, "MEAN_MOTION_DDOT": 0}, "tle": {"line1": "1 34754U 93036ZY  25361.05402509  .00000717  00000+0  23241-3 0  9995", "line2": "2 34754  74.0288 201.1242 0030062 314.5632 206.6330 14.40501324883396"}}, "geometry": {"type": "Point", "coordinates": [174.72460316149844, -56.689169567274405]}}, {"type": "Feature", "properties": {"norad_id": 34755, "name": "COSMOS 2251 DEB", "group": "cosmos-2251-debris", "lat": 4.492096627015994, "lon": -92.17440719358169, "alt_km": 1012.5512725786311, "timestamp": "2025-12-27T08:36:18.779751+00:00", "meta": {"OBJECT_NAME": "COSMOS 2251 DEB", "OBJECT_ID": "1993-036ZZ", "EPOCH": "2025-12-27T04:03:28.874880", "MEAN_MOTION": 13.50582602, "ECCENTRICITY": 0.0407811, "INCLINATION": 73.925, "RA_OF_ASC_NODE": 266.832, "ARG_OF_PERICENTER": 284.1121, "MEAN_ANOMALY": 235.2158, "EPHEMERIS_TYPE": 0, "CLASSIFICATION_TYPE": "U", "NORAD_CAT_ID": 34755, "ELEMENT_SET_NO": 999, "REV_AT_EPOCH": 82718, "BSTAR": 0.00075895, "MEAN_MOTION_DOT": 7.94e-06, "MEAN_MOTION_DDOT": 0}, "tle": {"line1": "1 34755U 93036ZZ  25361.16908420  .00000794  00000+0  75895-3 0  9998", "line2": "2 34755  73.9250 266.8320 0407811 284.1121 235.2158 13.50582602827183"}}, "geometry": {"type": "Point", "coordinates": [-92.17440719358169, 4.492096627015994]}}, {"type": "Feature", "properties": {"norad_id": 34756, "name": "COSMOS 2251 DEB", "group": "cosmos-2251-debris", "lat": 62.436819443685486, "lon": 113.6674306474639, "alt_km": 1100.5304954720887, "timestamp": "2025-12-27T08:36:18.779761+00:00", "meta": {"OBJECT_NAME": "COSMOS 2251 DEB", "OBJECT_ID": "1993-036AAA", "EPOCH": "2025-12-24T15:18:41.454720", "MEAN_MOTION": 13.67272702, "ECCENTRICITY": 0.0345926, "INCLINATION": 74.0032, "RA_OF_ASC_NODE": 84.8024, "ARG_OF_PERICENTER": 318.0621, "MEAN_ANOMALY": 39.4462, "EPHEMERIS_TYPE": 0, "CLASSIFICATION_TYPE": "U", "NORAD_CAT_ID": 34756, "ELEMENT_SET_NO": 999, "REV_AT_EPOCH": 83584, "BSTAR": 0.0010747811, "MEAN_MOTION_DOT": 1.342e-05, "MEAN_MOTION_DDOT": 0}, "tle": {"line1": "1 34756U 93036AAA 25358.63797980  .00001342  00000+0  10748-2 0  9999", "line2": "2 34756  74.0032  84.8024 0345926 318.0621  39.4462 13.67272702835842"}}, "geometry": {"type": "Point", "coordinates": [113.6674306474639, 62.436819443685486]}}, {"type": "Feature", "properties": {"norad_id": 34758, "name": "COSMOS 2251 DEB", "group": "cosmos-2251-debris", "lat": 52.342581599505465, "lon": -62.36573525424847, "alt_km": 767.9131294925819, "timestamp": "2025-12-27T08:36:18.779771+00:00", "meta": {"OBJECT_NAME": "COSMOS 2251 DEB", "OBJECT_ID": "1993-036AAC", "EPOCH": "2025-12-27T01:16:53.984640", "MEAN_MOTION": 13.58125954, "ECCENTRICITY": 0.0382602, "INCLINATION": 74.107, "RA_OF_ASC_NODE": 276.4602, "ARG_OF_PERICENTER": 36.8468, "MEAN_ANOMALY": 325.8288, "EPHEMERIS_TYPE": 0, "CLASSIFICATION_TYPE": "U", "NORAD_CAT_ID": 34758, "ELEMENT_SET_NO": 999, "REV_AT_EPOCH": 83104, "BSTAR": 0.0019739, "MEAN_MOTION_DOT": 2.286e-05, "MEAN_MOTION_DDOT": 0}, "tle": {"line1": "1 34758U 93036AAC 25361.05340260  .00002286  00000+0  19739-2 0  9993", "line2": "2 34758  74.1070 276.4602 0382602  36.8468 325.8288 13.58125954831046"}}, "geometry": {"type": "Point", "coordinates": [-62.36573525424847, 52.342581599505465]}}, {"type": "Feature", "properties": {"norad_id": 34760, "name": "COSMOS 2251 DEB", "group": "cosmos-2251-debris", "lat": -58.80890742819184, "lon": -111.8912057335189, "alt_km": 771.3516994994434, "timestamp": "2025-12-27T08:36:18.779781+00:00", "meta": {"OBJECT_NAME": "COSMOS 2251 DEB", "OBJECT_ID": "1993-036AAE", "EPOCH": "2025-12-26T11:28:08.253120", "MEAN_MOTION": 14.1960414, "ECCENTRICITY": 0.009732, "INCLINATION": 74.0632, "RA_OF_ASC_NODE": 277.842, "ARG_OF_PERICENTER": 326.9633, "MEAN_ANOMALY": 151.7947, "EPHEMERIS_TYPE": 0, "CLASSIFICATION_TYPE": "U", "NORAD_CAT_ID": 34760, "ELEMENT_SET_NO": 999, "REV_AT_EPOCH": 86883, "BSTAR": 0.00062411, "MEAN_MOTION_DOT": 1.356e-05, "MEAN_MOTION_DDOT": 0}, "tle": {"line1": "1 34760U 93036AAE 25360.47787330  .00001356  00000+0  62411-3 0  9997", "line2": "2 34760  74.0632 277.8420 0097320 326.9633 151.7947 14.19604140868834"}}, "geometry": {"type": "Point", "coordinates": [-111.8912057335189, -58.80890742819184]}}, {"type": "Feature", "properties": {"norad_id": 34761, "name": "COSMOS 2251 DEB", "group": "cosmos-2251-debris", "lat": 64.40012867855484, "lon": 119.14094655163179, "alt_km": 764.542625921491, "timestamp": "2025-12-27T08:36:18.779791+00:00", "meta": {"OBJECT_NAME": "COSMOS 2251 DEB", "OBJECT_ID": "1993-036AAF", "EPOCH": "2025-12-27T04:45:27.396000", "MEAN_MOTION": 14.38105153, "ECCENTRICITY": 0.0037185, "INCLINATION": 74.0287, "RA_OF_ASC_NODE": 336.1447, "ARG_OF_PERICENTER": 6.3825, "MEAN_ANOMALY": 353.7795, "EPHEMERIS_TYPE": 0, "CLASSIFICATION_TYPE": "U", "NORAD_CAT_ID": 34761, "ELEMENT_SET_NO": 999, "REV_AT_EPOCH": 87857, "BSTAR": 0.00080983, "MEAN_MOTION_DOT": 2.449e-05, "MEAN_MOTION_DDOT": 0}, "tle": {"line1": "1 34761U 93036AAF 25361.19823375  .00002449  00000+0  80983-3 0  9996", "line2": "2 34761  74.0287 336.1447 0037185   6.3825 353.7795 14.38105153878572"}}, "geometry": {"type": "Point", "coordinates": [119.14094655163179, 64.40012867855484]}}, {"type": "Feature", "properties": {"norad_id": 34784, "name": "COSMOS 2251 DEB", "group": "cosmos-2251-debris", "lat": 72.84919178277363, "lon": 48.04929530510646, "alt_km": 648.5213927255509, "timestamp": "2025-12-27T08:36:18.779801+00:00", "meta": {"OBJECT_NAME": "COSMOS 2251 DEB", "OBJECT_ID": "1993-036AAM", "EPOCH": "2025-12-26T05:52:17.900832", "MEAN_MOTION": 14.60839983, "ECCENTRICITY": 0.0049103, "INCLINATION": 74.0077, "RA_OF_ASC_NODE": 298.5051, "ARG_OF_PERICENTER": 103.7988, "MEAN_ANOMALY": 256.8649, "EPHEMERIS_TYPE": 0, "CLASSIFICATION_TYPE": "U", "NORAD_CAT_ID": 34784, "ELEMENT_SET_NO": 999, "REV_AT_EPOCH": 88732, "BSTAR": 0.00052479, "MEAN_MOTION_DOT": 2.579e-05, "MEAN_MOTION_DDOT": 0}, "tle": {"line1": "1 34784U 93036AAM 25360.24465163  .00002579  00000+0  52479-3 0  9996", "line2": "2 34784  74.0077 298.5051 0049103 103.7988 256.8649 14.60839983887325"}}, "geometry": {"type": "Point", "coordinates": [48.04929530510646, 72.84919178277363]}}, {"type": "Feature", "properties": {"norad_id": 34790, "name": "COSMOS 2251 DEB", "group": "cosmos-2251-debris", "lat": 55.50499308282518, "lon": 12.795709367085657, "alt_km": 869.2369148501311, "timestamp": "2025-12-27T08:36:18.779811+00:00", "meta": {"OBJECT_NAME": "COSMOS 2251 DEB", "OBJECT_ID": "1993-036AAT", "EPOCH": "2025-12-25T15:51:16.162272", "MEAN_MOTION": 14.24671167, "ECCENTRICITY": 0.0100473, "INCLINATION": 74.0524, "RA_OF_ASC_NODE": 220.442, "ARG_OF_PERICENTER": 279.3563, "MEAN_ANOMALY": 137.0748, "EPHEMERIS_TYPE": 0, "CLASSIFICATION_TYPE": "U", "NORAD_CAT_ID": 34790, "ELEMENT_SET_NO": 999, "REV_AT_EPOCH": 86757, "BSTAR": 0.00054898, "MEAN_MOTION_DOT": 1.32e-05, "MEAN_MOTION_DDOT": 0}, "tle": {"line1": "1 34790U 93036AAT 25359.66060373  .00001320  00000+0  54898-3 0  9991", "line2": "2 34790  74.0524 220.4420 0100473 279.3563 137.0748 14.24671167867573"}}, "geometry": {"type": "Point", "coordinates": [12.795709367085657, 55.50499308282518]}}]}